{
  "type": "FeatureCollection",
  "features": [
    {
      "type": "Feature",
      "properties": {
        "norad_id": 67081,
        "name": "STARLINK-35864",
        "group": "last-30-days",
        "lat": -62.32032706885584,
        "lon": 83.66966788912318,
        "alt_km": 312.905990634762,
        "timestamp": "2025-12-23T09:49:05.800685+00:00",
        "meta_object_name": "STARLINK-35864",
        "meta_object_id": "2025-298G",
        "meta_epoch": "2025-12-22T22:00:03.000096",
        "meta_mean_motion": 15.89355353,
        "meta_eccentricity": 0.00043921,
        "meta_inclination": 69.9971,
        "meta_ra_of_asc_node": 221.106,
        "meta_arg_of_pericenter": 275.8592,
        "meta_mean_anomaly": 39.6372,
        "meta_ephemeris_type": 0,
        "meta_classification_type": "U",
        "meta_norad_cat_id": 67081,
        "meta_element_set_no": 999,
        "meta_rev_at_epoch": 261,
        "meta_bstar": -0.006061448,
        "meta_mean_motion_dot": -0.01749766,
        "meta_mean_motion_ddot": 0.00082786252,
        "tle_line1": "1 67081U 25298G   25356.91670139 -.01749766  82786-3 -60614-2 0  9990",
        "tle_line2": "2 67081  69.9971 221.1060 0004392 275.8592  39.6372 15.89355353  2619"
      },
      "geometry": {
        "type": "Point",
        "coordinates": [
          83.66966788912318,
          -62.32032706885584
        ]
      }
    },
    {
      "type": "Feature",
      "properties": {
        "norad_id": 67082,
        "name": "STARLINK-36035",
        "group": "last-30-days",
        "lat": -63.696151762072496,
        "lon": 87.15561046410056,
        "alt_km": 312.7736456638604,
        "timestamp": "2025-12-23T09:49:05.800695+00:00",
        "meta_object_name": "STARLINK-36035",
        "meta_object_id": "2025-298H",
        "meta_epoch": "2025-12-22T22:00:03.000096",
        "meta_mean_motion": 15.89386502,
        "meta_eccentricity": 0.00045186,
        "meta_inclination": 69.9971,
        "meta_ra_of_asc_node": 221.1036,
        "meta_arg_of_pericenter": 270.2528,
        "meta_mean_anomaly": 47.3353,
        "meta_ephemeris_type": 0,
        "meta_classification_type": "U",
        "meta_norad_cat_id": 67082,
        "meta_element_set_no": 999,
        "meta_rev_at_epoch": 261,
        "meta_bstar": -0.0062651728,
        "meta_mean_motion_dot": -0.01810732,
        "meta_mean_motion_ddot": 0.00088250445,
        "tle_line1": "1 67082U 25298H   25356.91670139 -.01810732  88250-3 -62652-2 0  9999",
        "tle_line2": "2 67082  69.9971 221.1036 0004518 270.2528  47.3353 15.89386502  2616"
      },
      "geometry": {
        "type": "Point",
        "coordinates": [
          87.15561046410056,
          -63.696151762072496
        ]
      }
    },
    {
      "type": "Feature",
      "properties": {
        "norad_id": 67083,
        "name": "STARLINK-36170",
        "group": "last-30-days",
        "lat": -65.00502548828068,
        "lon": 91.07008227956452,
        "alt_km": 312.8101346230842,
        "timestamp": "2025-12-23T09:49:05.800708+00:00",
        "meta_object_name": "STARLINK-36170",
        "meta_object_id": "2025-298J",
        "meta_epoch": "2025-12-22T22:00:03.000096",
        "meta_mean_motion": 15.8941683,
        "meta_eccentricity": 0.00045671,
        "meta_inclination": 69.9968,
        "meta_ra_of_asc_node": 221.1008,
        "meta_arg_of_pericenter": 270.1193,
        "meta_mean_anomaly": 49.6121,
        "meta_ephemeris_type": 0,
        "meta_classification_type": "U",
        "meta_norad_cat_id": 67083,
        "meta_element_set_no": 999,
        "meta_rev_at_epoch": 261,
        "meta_bstar": -0.0064748806,
        "meta_mean_motion_dot": -0.01873439,
        "meta_mean_motion_ddot": 0.0009405125,
        "tle_line1": "1 67083U 25298J   25356.91670139 -.01873439  94051-3 -64749-2 0  9998",
        "tle_line2": "2 67083  69.9968 221.1008 0004567 270.1193  49.6121 15.89416830  2619"
      },
      "geometry": {
        "type": "Point",
        "coordinates": [
          91.07008227956452,
          -65.00502548828068
        ]
      }
    },
    {
      "type": "Feature",
      "properties": {
        "norad_id": 67084,
        "name": "STARLINK-36166",
        "group": "last-30-days",
        "lat": -66.13377451751114,
        "lon": 95.10321354317172,
        "alt_km": 312.8515626356402,
        "timestamp": "2025-12-23T09:49:05.800718+00:00",
        "meta_object_name": "STARLINK-36166",
        "meta_object_id": "2025-298K",
        "meta_epoch": "2025-12-22T22:00:03.000096",
        "meta_mean_motion": 15.89434932,
        "meta_eccentricity": 0.00045775,
        "meta_inclination": 69.9968,
        "meta_ra_of_asc_node": 221.0983,
        "meta_arg_of_pericenter": 271.1494,
        "meta_mean_anomaly": 50.5982,
        "meta_ephemeris_type": 0,
        "meta_classification_type": "U",
        "meta_norad_cat_id": 67084,
        "meta_element_set_no": 999,
        "meta_rev_at_epoch": 255,
        "meta_bstar": -0.0065945609,
        "meta_mean_motion_dot": -0.01909359,
        "meta_mean_motion_ddot": 0.00097459092,
        "tle_line1": "1 67084U 25298K   25356.91670139 -.01909359  97459-3 -65946-2 0  9995",
        "tle_line2": "2 67084  69.9968 221.0983 0004577 271.1494  50.5982 15.89434932  2559"
      },
      "geometry": {
        "type": "Point",
        "coordinates": [
          95.10321354317172,
          -66.13377451751114
        ]
      }
    },
    {
      "type": "Feature",
      "properties": {
        "norad_id": 67085,
        "name": "STARLINK-35794",
        "group": "last-30-days",
        "lat": -67.13288241677317,
        "lon": 99.42110228409275,
        "alt_km": 312.80737036582286,
        "timestamp": "2025-12-23T09:49:05.800728+00:00",
        "meta_object_name": "STARLINK-35794",
        "meta_object_id": "2025-298L",
        "meta_epoch": "2025-12-22T22:00:03.000096",
        "meta_mean_motion": 15.89451861,
        "meta_eccentricity": 0.0004668,
        "meta_inclination": 69.9967,
        "meta_ra_of_asc_node": 221.096,
        "meta_arg_of_pericenter": 269.7821,
        "meta_mean_anomaly": 53.9489,
        "meta_ephemeris_type": 0,
        "meta_classification_type": "U",
        "meta_norad_cat_id": 67085,
        "meta_element_set_no": 999,
        "meta_rev_at_epoch": 261,
        "meta_bstar": -0.0067090229,
        "meta_mean_motion_dot": -0.01943793,
        "meta_mean_motion_ddot": 0.0010078387,
        "tle_line1": "1 67085U 25298L   25356.91670139 -.01943793  10078-2 -67090-2 0  9999",
        "tle_line2": "2 67085  69.9967 221.0960 0004668 269.7821  53.9489 15.89451861  2618"
      },
      "geometry": {
        "type": "Point",
        "coordinates": [
          99.42110228409275,
          -67.13288241677317
        ]
      }
    },
    {
      "type": "Feature",
      "properties": {
        "norad_id": 67086,
        "name": "STARLINK-35841",
        "group": "last-30-days",
        "lat": -68.11219771222544,
        "lon": 104.7363685625147,
        "alt_km": 312.9267329832646,
        "timestamp": "2025-12-23T09:49:05.800738+00:00",
        "meta_object_name": "STARLINK-35841",
        "meta_object_id": "2025-298M",
        "meta_epoch": "2025-12-22T22:00:03.000096",
        "meta_mean_motion": 15.89457439,
        "meta_eccentricity": 0.00045784,
        "meta_inclination": 69.9968,
        "meta_ra_of_asc_node": 221.0933,
        "meta_arg_of_pericenter": 269.5871,
        "meta_mean_anomaly": 56.4106,
        "meta_ephemeris_type": 0,
        "meta_classification_type": "U",
        "meta_norad_cat_id": 67086,
        "meta_element_set_no": 999,
        "meta_rev_at_epoch": 261,
        "meta_bstar": -0.0068146507,
        "meta_mean_motion_dot": -0.01974496,
        "meta_mean_motion_ddot": 0.0010378725,
        "tle_line1": "1 67086U 25298M   25356.91670139 -.01974496  10379-2 -68147-2 0  9992",
        "tle_line2": "2 67086  69.9968 221.0933 0004578 269.5871  56.4106 15.89457439  2614"
      },
      "geometry": {
        "type": "Point",
        "coordinates": [
          104.7363685625147,
          -68.11219771222544
        ]
      }
    },
    {
      "type": "Feature",
      "properties": {
        "norad_id": 67087,
        "name": "STARLINK-35842",
        "group": "last-30-days",
        "lat": -68.75709769416339,
        "lon": 109.24663465281445,
        "alt_km": 312.926545891909,
        "timestamp": "2025-12-23T09:49:05.800750+00:00",
        "meta_object_name": "STARLINK-35842",
        "meta_object_id": "2025-298N",
        "meta_epoch": "2025-12-22T22:00:03.000096",
        "meta_mean_motion": 15.8946798,
        "meta_eccentricity": 0.00045842,
        "meta_inclination": 69.9968,
        "meta_ra_of_asc_node": 221.0912,
        "meta_arg_of_pericenter": 272.8127,
        "meta_mean_anomaly": 54.9552,
        "meta_ephemeris_type": 0,
        "meta_classification_type": "U",
        "meta_norad_cat_id": 67087,
        "meta_element_set_no": 999,
        "meta_rev_at_epoch": 261,
        "meta_bstar": -0.0068286805,
        "meta_mean_motion_dot": -0.01979549,
        "meta_mean_motion_ddot": 0.0010429574,
        "tle_line1": "1 67087U 25298N   25356.91670139 -.01979549  10430-2 -68287-2 0  9990",
        "tle_line2": "2 67087  69.9968 221.0912 0004584 272.8127  54.9552 15.89467980  2610"
      },
      "geometry": {
        "type": "Point",
        "coordinates": [
          109.24663465281445,
          -68.75709769416339
        ]
      }
    }
  ]
}